{
  "type": "FeatureCollection",
  "features": [
    {
      "type": "Feature",
      "geometry": {
        "type": "Point",
        "coordinates": [
          32.724784,
          39.935743
        ]
      },
      "properties": {
        "nokta": 67,
        "tur": "SERVİ",
        "grup": "İBRELİ",
        "dbh_cm": 50,
        "boy_m": 4,
        "karbon_kg": 145.289520137623,
        "tarih": "2026-09-01"
      }
    },
    {
      "type": "Feature",
      "geometry": {
        "type": "Point",
        "coordinates": [
          32.865297,
          39.95975
        ]
      },
      "properties": {
        "nokta": 75,
        "tur": "ÇINAR",
        "grup": "YAPRAKLI",
        "dbh_cm": 320,
        "boy_m": 15,
        "karbon_kg": 23878.2131450856,
        "tarih": "2026-09-03"
      }
    }
  ]
}