{
  "type": "FeatureCollection",
  "features": [
    {
      "type": "Feature",
      "geometry": {
        "type": "Point",
        "coordinates": [
          32.652171,
          39.990257
        ]
      },
      "properties": {
        "nokta": 1,
        "tur": "SÜS ERİĞİ",
        "grup": "YAPRAKLI",
        "gogus_cevresi_cm": 110,
        "dbh_cm": 35,
        "boy_m": 7,
        "karbon_kg": 151.099022577992,
        "tarih": "2026-10-01"
      }
    },
    {
      "type": "Feature",
      "geometry": {
        "type": "Point",
        "coordinates": [
          32.651361,
          39.989899
        ]
      },
      "properties": {
        "nokta": 2,
        "tur": "SÜS ERİĞİ",
        "grup": "YAPRAKLI",
        "gogus_cevresi_cm": 92,
        "dbh_cm": 29.3,
        "boy_m": 7.8,
        "karbon_kg": 118.480156105856,
        "tarih": "2026-10-01"
      }
    },
    {
      "type": "Feature",
      "geometry": {
        "type": "Point",
        "coordinates": [
          32.650762,
          39.989757
        ]
      },
      "properties": {
        "nokta": 3,
        "tur": "SALKIM SÖĞÜT",
        "grup": "YAPRAKLI",
        "gogus_cevresi_cm": 166,
        "dbh_cm": 52.8,
        "boy_m": 10.7,
        "karbon_kg": 510.477966266016,
        "tarih": "2026-10-01"
      }
    },
    {
      "type": "Feature",
      "geometry": {
        "type": "Point",
        "coordinates": [
          32.650509,
          39.98973
        ]
      },
      "properties": {
        "nokta": 4,
        "tur": "HALEP ÇAMI",
        "grup": "İBRELİ",
        "gogus_cevresi_cm": 57,
        "dbh_cm": 18.1,
        "boy_m": 8,
        "karbon_kg": 42.4445476066324,
        "tarih": "2026-10-01"
      }
    },
    {
      "type": "Feature",
      "geometry": {
        "type": "Point",
        "coordinates": [
          32.650203,
          39.989694
        ]
      },
      "properties": {
        "nokta": 5,
        "tur": "AKASYA",
        "grup": "YAPRAKLI",
        "gogus_cevresi_cm": 90,
        "dbh_cm": 28.6,
        "boy_m": 7,
        "karbon_kg": 102.12792590539,
        "tarih": "2026-10-01"
      }
    },
    {
      "type": "Feature",
      "geometry": {
        "type": "Point",
        "coordinates": [
          32.649799,
          39.989571
        ]
      },
      "properties": {
        "nokta": 6,
        "tur": "KARAÇAM",
        "grup": "İBRELİ",
        "gogus_cevresi_cm": 82,
        "dbh_cm": 26.1,
        "boy_m": 9,
        "karbon_kg": 94.868002026175,
        "tarih": "2026-10-01"
      }
    },
    {
      "type": "Feature",
      "geometry": {
        "type": "Point",
        "coordinates": [
          32.649391,
          39.989116
        ]
      },
      "properties": {
        "nokta": 7,
        "tur": "KARAÇAM",
        "grup": "İBRELİ",
        "gogus_cevresi_cm": 107,
        "dbh_cm": 34.1,
        "boy_m": 10.8,
        "karbon_kg": 190.543063988351,
        "tarih": "2026-10-01"
      }
    },
    {
      "type": "Feature",
      "geometry": {
        "type": "Point",
        "coordinates": [
          32.648536,
          39.98922
        ]
      },
      "properties": {
        "nokta": 8,
        "tur": "SALKIM SÖĞÜT",
        "grup": "YAPRAKLI",
        "gogus_cevresi_cm": 112,
        "dbh_cm": 35.7,
        "boy_m": 10.3,
        "karbon_kg": 228.16559508467,
        "tarih": "2026-10-01"
      }
    },
    {
      "type": "Feature",
      "geometry": {
        "type": "Point",
        "coordinates": [
          32.64848,
          39.988587
        ]
      },
      "properties": {
        "nokta": 9,
        "tur": "DOĞU ÇINARI",
        "grup": "YAPRAKLI",
        "gogus_cevresi_cm": 84,
        "dbh_cm": 26.7,
        "boy_m": 6.9,
        "karbon_kg": 88.0151281158203,
        "tarih": "2026-10-01"
      }
    },
    {
      "type": "Feature",
      "geometry": {
        "type": "Point",
        "coordinates": [
          32.648074,
          39.988751
        ]
      },
      "properties": {
        "nokta": 10,
        "tur": "MAVİ LADİN",
        "grup": "İBRELİ",
        "gogus_cevresi_cm": 88,
        "dbh_cm": 28,
        "boy_m": 6.7,
        "karbon_kg": 77.5669868660649,
        "tarih": "2026-10-01"
      }
    },
    {
      "type": "Feature",
      "geometry": {
        "type": "Point",
        "coordinates": [
          32.647281,
          39.988569
        ]
      },
      "properties": {
        "nokta": 11,
        "tur": "AT KESTANESİ",
        "grup": "YAPRAKLI",
        "gogus_cevresi_cm": 102,
        "dbh_cm": 32.5,
        "boy_m": 8,
        "karbon_kg": 148.542527431494,
        "tarih": "2026-10-01"
      }
    },
    {
      "type": "Feature",
      "geometry": {
        "type": "Point",
        "coordinates": [
          32.646497,
          39.988656
        ]
      },
      "properties": {
        "nokta": 12,
        "tur": "KARAAĞAÇ",
        "grup": "YAPRAKLI",
        "gogus_cevresi_cm": 70,
        "dbh_cm": 22.3,
        "boy_m": 5.3,
        "karbon_kg": 47.6619788231742,
        "tarih": "2026-10-01"
      }
    },
    {
      "type": "Feature",
      "geometry": {
        "type": "Point",
        "coordinates": [
          32.645965,
          39.989153
        ]
      },
      "properties": {
        "nokta": 13,
        "tur": "AT KESTANESİ",
        "grup": "YAPRAKLI",
        "gogus_cevresi_cm": 88,
        "dbh_cm": 28,
        "boy_m": 10.7,
        "karbon_kg": 147.895918735225,
        "tarih": "2026-10-01"
      }
    },
    {
      "type": "Feature",
      "geometry": {
        "type": "Point",
        "coordinates": [
          32.64554,
          39.989575
        ]
      },
      "properties": {
        "nokta": 14,
        "tur": "MAVİ LADİN",
        "grup": "İBRELİ",
        "gogus_cevresi_cm": 142,
        "dbh_cm": 45.2,
        "boy_m": 11.2,
        "karbon_kg": 325.912769102374,
        "tarih": "2026-10-01"
      }
    },
    {
      "type": "Feature",
      "geometry": {
        "type": "Point",
        "coordinates": [
          32.645354,
          39.989999
        ]
      },
      "properties": {
        "nokta": 15,
        "tur": "SALKIM SÖĞÜT",
        "grup": "YAPRAKLI",
        "gogus_cevresi_cm": 140,
        "dbh_cm": 44.6,
        "boy_m": 11.9,
        "karbon_kg": 406.090852212906,
        "tarih": "2026-10-01"
      }
    },
    {
      "type": "Feature",
      "geometry": {
        "type": "Point",
        "coordinates": [
          32.645158,
          39.99063
        ]
      },
      "properties": {
        "nokta": 16,
        "tur": "AT KESTANESİ",
        "grup": "YAPRAKLI",
        "gogus_cevresi_cm": 58,
        "dbh_cm": 18.5,
        "boy_m": 5.2,
        "karbon_kg": 32.4099345010737,
        "tarih": "2026-10-01"
      }
    },
    {
      "type": "Feature",
      "geometry": {
        "type": "Point",
        "coordinates": [
          32.644972,
          39.990994
        ]
      },
      "properties": {
        "nokta": 17,
        "tur": "GÖKNAR",
        "grup": "İBRELİ",
        "gogus_cevresi_cm": 57,
        "dbh_cm": 18.1,
        "boy_m": 5.6,
        "karbon_kg": 22.0169197623268,
        "tarih": "2026-10-01"
      }
    },
    {
      "type": "Feature",
      "geometry": {
        "type": "Point",
        "coordinates": [
          32.645614,
          39.991792
        ]
      },
      "properties": {
        "nokta": 18,
        "tur": "AT KESTANESİ",
        "grup": "YAPRAKLI",
        "gogus_cevresi_cm": 80,
        "dbh_cm": 25.5,
        "boy_m": 9.5,
        "karbon_kg": 109.32949445055,
        "tarih": "2026-10-01"
      }
    },
    {
      "type": "Feature",
      "geometry": {
        "type": "Point",
        "coordinates": [
          32.646158,
          39.992143
        ]
      },
      "properties": {
        "nokta": 19,
        "tur": "SÜS ERİĞİ",
        "grup": "YAPRAKLI",
        "gogus_cevresi_cm": 92,
        "dbh_cm": 29.3,
        "boy_m": 8.2,
        "karbon_kg": 124.406652804493,
        "tarih": "2026-10-01"
      }
    },
    {
      "type": "Feature",
      "geometry": {
        "type": "Point",
        "coordinates": [
          32.646334,
          39.992404
        ]
      },
      "properties": {
        "nokta": 20,
        "tur": "ATLAS SEDİRİ",
        "grup": "İBRELİ",
        "gogus_cevresi_cm": 122,
        "dbh_cm": 38.8,
        "boy_m": 10.3,
        "karbon_kg": 223.306445487645,
        "tarih": "2026-10-01"
      }
    },
    {
      "type": "Feature",
      "geometry": {
        "type": "Point",
        "coordinates": [
          32.646658,
          39.992562
        ]
      },
      "properties": {
        "nokta": 21,
        "tur": "MAVİ LADİN",
        "grup": "İBRELİ",
        "gogus_cevresi_cm": 92,
        "dbh_cm": 29.3,
        "boy_m": 10.8,
        "karbon_kg": 134.813431183121,
        "tarih": "2026-10-01"
      }
    },
    {
      "type": "Feature",
      "geometry": {
        "type": "Point",
        "coordinates": [
          32.647088,
          39.992668
        ]
      },
      "properties": {
        "nokta": 22,
        "tur": "SÖĞÜT",
        "grup": "YAPRAKLI",
        "gogus_cevresi_cm": 87,
        "dbh_cm": 27.7,
        "boy_m": 4,
        "karbon_kg": 55.3604458602086,
        "tarih": "2026-10-01"
      }
    },
    {
      "type": "Feature",
      "geometry": {
        "type": "Point",
        "coordinates": [
          32.647694,
          39.992926
        ]
      },
      "properties": {
        "nokta": 23,
        "tur": "SÜS ERİĞİ",
        "grup": "YAPRAKLI",
        "gogus_cevresi_cm": 30,
        "dbh_cm": 9.5,
        "boy_m": 3.5,
        "karbon_kg": 6.08132966700884,
        "tarih": "2026-10-01"
      }
    },
    {
      "type": "Feature",
      "geometry": {
        "type": "Point",
        "coordinates": [
          32.64731,
          39.99212
        ]
      },
      "properties": {
        "nokta": 25,
        "tur": "DİŞBUDAK",
        "grup": "YAPRAKLI",
        "gogus_cevresi_cm": 137,
        "dbh_cm": 43.6,
        "boy_m": 7.3,
        "karbon_kg": 250.767481534931,
        "tarih": "2026-09-28"
      }
    },
    {
      "type": "Feature",
      "geometry": {
        "type": "Point",
        "coordinates": [
          32.64763,
          39.99128
        ]
      },
      "properties": {
        "nokta": 26,
        "tur": "DUT",
        "grup": "YAPRAKLI",
        "gogus_cevresi_cm": 72,
        "dbh_cm": 22.9,
        "boy_m": 5.8,
        "karbon_kg": 54.9877818786946,
        "tarih": "2026-09-28"
      }
    },
    {
      "type": "Feature",
      "geometry": {
        "type": "Point",
        "coordinates": [
          32.64866,
          39.99216
        ]
      },
      "properties": {
        "nokta": 27,
        "tur": "DUT",
        "grup": "YAPRAKLI",
        "gogus_cevresi_cm": 63,
        "dbh_cm": 20.1,
        "boy_m": 4,
        "karbon_kg": 29.4829374183149,
        "tarih": "2026-09-28"
      }
    },
    {
      "type": "Feature",
      "geometry": {
        "type": "Point",
        "coordinates": [
          32.64912,
          39.99167
        ]
      },
      "properties": {
        "nokta": 28,
        "tur": "SALKIM SÖĞÜT",
        "grup": "YAPRAKLI",
        "gogus_cevresi_cm": 100,
        "dbh_cm": 31.8,
        "boy_m": 6.8,
        "karbon_kg": 121.948410870146,
        "tarih": "2026-09-28"
      }
    },
    {
      "type": "Feature",
      "geometry": {
        "type": "Point",
        "coordinates": [
          32.64972,
          39.99166
        ]
      },
      "properties": {
        "nokta": 29,
        "tur": "IHLAMUR",
        "grup": "YAPRAKLI",
        "gogus_cevresi_cm": 40,
        "dbh_cm": 12.7,
        "boy_m": 4.5,
        "karbon_kg": 13.6271163200211,
        "tarih": "2026-09-28"
      }
    },
    {
      "type": "Feature",
      "geometry": {
        "type": "Point",
        "coordinates": [
          32.65002,
          39.99152
        ]
      },
      "properties": {
        "nokta": 30,
        "tur": "AKÇAAĞAÇ",
        "grup": "YAPRAKLI",
        "gogus_cevresi_cm": 58,
        "dbh_cm": 18.5,
        "boy_m": 8.8,
        "karbon_kg": 54.1594166563212,
        "tarih": "2026-09-28"
      }
    },
    {
      "type": "Feature",
      "geometry": {
        "type": "Point",
        "coordinates": [
          32.6509,
          39.99151
        ]
      },
      "properties": {
        "nokta": 31,
        "tur": "KATALPA",
        "grup": "YAPRAKLI",
        "gogus_cevresi_cm": 63,
        "dbh_cm": 20.1,
        "boy_m": 7.8,
        "karbon_kg": 56.5776013515436,
        "tarih": "2026-09-28"
      }
    },
    {
      "type": "Feature",
      "geometry": {
        "type": "Point",
        "coordinates": [
          32.65141,
          39.99143
        ]
      },
      "properties": {
        "nokta": 32,
        "tur": "SALKIM SÖĞÜT",
        "grup": "YAPRAKLI",
        "gogus_cevresi_cm": 200,
        "dbh_cm": 63.7,
        "boy_m": 12.5,
        "karbon_kg": 854.756025043452,
        "tarih": "2026-09-28"
      }
    },
    {
      "type": "Feature",
      "geometry": {
        "type": "Point",
        "coordinates": [
          32.65192,
          39.99094
        ]
      },
      "properties": {
        "nokta": 33,
        "tur": "AKÇAAĞAÇ",
        "grup": "YAPRAKLI",
        "gogus_cevresi_cm": 86,
        "dbh_cm": 27.4,
        "boy_m": 8.3,
        "karbon_kg": 110.359224881374,
        "tarih": "2026-09-28"
      }
    },
    {
      "type": "Feature",
      "geometry": {
        "type": "Point",
        "coordinates": [
          32.65246,
          39.99073
        ]
      },
      "properties": {
        "nokta": 34,
        "tur": "DİŞBUDAK",
        "grup": "YAPRAKLI",
        "gogus_cevresi_cm": 75,
        "dbh_cm": 23.9,
        "boy_m": 6.5,
        "karbon_kg": 69.073678045277,
        "tarih": "2026-09-28"
      }
    },
    {
      "type": "Feature",
      "geometry": {
        "type": "Point",
        "coordinates": [
          32.65189,
          39.99093
        ]
      },
      "properties": {
        "nokta": 35,
        "tur": "AKÇAAĞAÇ",
        "grup": "YAPRAKLI",
        "gogus_cevresi_cm": 86,
        "dbh_cm": 27.4,
        "boy_m": 8.3,
        "karbon_kg": 110.359224881374,
        "tarih": "2026-09-28"
      }
    },
    {
      "type": "Feature",
      "geometry": {
        "type": "Point",
        "coordinates": [
          32.65189,
          39.99131
        ]
      },
      "properties": {
        "nokta": 37,
        "tur": "LADİN",
        "grup": "İBRELİ",
        "gogus_cevresi_cm": 78,
        "dbh_cm": 24.8,
        "boy_m": 10,
        "karbon_kg": 73.114819845799,
        "tarih": "2026-09-28"
      }
    },
    {
      "type": "Feature",
      "geometry": {
        "type": "Point",
        "coordinates": [
          32.64803,
          39.99299
        ]
      },
      "properties": {
        "nokta": 43,
        "tur": "SIĞLA",
        "grup": "YAPRAKLI",
        "gogus_cevresi_cm": 57,
        "dbh_cm": 18.1,
        "boy_m": 7.5,
        "karbon_kg": 44.7893704221455,
        "tarih": "2026-09-28"
      }
    }
  ]
}