{
  "type": "FeatureCollection",
  "features": [
    {
      "type": "Feature",
      "geometry": {
        "type": "Point",
        "coordinates": [
          32.654592,
          39.97328
        ]
      },
      "properties": {
        "nokta": 1,
        "tur": "GÖKNAR",
        "grup": "İBRELİ",
        "dbh_cm": 27,
        "boy_m": 6.5,
        "karbon_kg": 55.3247400838977,
        "tarih": "2026-09-08"
      }
    },
    {
      "type": "Feature",
      "geometry": {
        "type": "Point",
        "coordinates": [
          32.654959,
          39.973248
        ]
      },
      "properties": {
        "nokta": 2,
        "tur": "LADİN",
        "grup": "İBRELİ",
        "dbh_cm": 20,
        "boy_m": 5,
        "karbon_kg": 24.3712933421853,
        "tarih": "2026-09-08"
      }
    },
    {
      "type": "Feature",
      "geometry": {
        "type": "Point",
        "coordinates": [
          32.655676,
          39.973988
        ]
      },
      "properties": {
        "nokta": 3,
        "tur": "ARDIÇ",
        "grup": "İBRELİ",
        "dbh_cm": 25,
        "boy_m": 6.5,
        "karbon_kg": 62.1609215003715,
        "tarih": "2026-09-11"
      }
    },
    {
      "type": "Feature",
      "geometry": {
        "type": "Point",
        "coordinates": [
          32.65475,
          39.97397
        ]
      },
      "properties": {
        "nokta": 4,
        "tur": "KARAÇAM",
        "grup": "İBRELİ",
        "dbh_cm": 20,
        "boy_m": 5,
        "karbon_kg": 31.7874911587332,
        "tarih": "2026-09-11"
      }
    }
  ]
}