{
  "type": "FeatureCollection",
  "features": [
    {
      "type": "Feature",
      "geometry": {
        "type": "Point",
        "coordinates": [
          32.652009,
          39.99025
        ]
      },
      "properties": {
        "nokta": 1,
        "tur": "SÜS ERİĞİ",
        "grup": "YAPRAKLI",
        "dbh_cm": 110,
        "boy_m": 10.2,
        "karbon_kg": 2034.657072,
        "tarih": "2026-09-28"
      }
    },
    {
      "type": "Feature",
      "geometry": {
        "type": "Point",
        "coordinates": [
          32.651541,
          39.990068
        ]
      },
      "properties": {
        "nokta": 2,
        "tur": "SÜS ERİĞİ",
        "grup": "YAPRAKLI",
        "dbh_cm": 92,
        "boy_m": 8.7,
        "karbon_kg": 1229.087412,
        "tarih": "2026-09-28"
      }
    },
    {
      "type": "Feature",
      "geometry": {
        "type": "Point",
        "coordinates": [
          32.650839,
          39.989886
        ]
      },
      "properties": {
        "nokta": 3,
        "tur": "SALKIM SÖĞÜT",
        "grup": "YAPRAKLI",
        "dbh_cm": 166,
        "boy_m": 14,
        "karbon_kg": 6188.300496,
        "tarih": "2026-09-28"
      }
    },
    {
      "type": "Feature",
      "geometry": {
        "type": "Point",
        "coordinates": [
          32.650372,
          39.989524
        ]
      },
      "properties": {
        "nokta": 4,
        "tur": "HALEP ÇAMI",
        "grup": "İBRELİ",
        "dbh_cm": 57,
        "boy_m": 9.3,
        "karbon_kg": 459.28071,
        "tarih": "2026-09-28"
      }
    },
    {
      "type": "Feature",
      "geometry": {
        "type": "Point",
        "coordinates": [
          32.650137,
          39.989703
        ]
      },
      "properties": {
        "nokta": 5,
        "tur": "CEVİZ",
        "grup": "YAPRAKLI",
        "dbh_cm": 90,
        "boy_m": 8.3,
        "karbon_kg": 1124.605566,
        "tarih": "2026-09-28"
      }
    },
    {
      "type": "Feature",
      "geometry": {
        "type": "Point",
        "coordinates": [
          32.649904,
          39.989523
        ]
      },
      "properties": {
        "nokta": 6,
        "tur": "KARAÇAM",
        "grup": "İBRELİ",
        "dbh_cm": 82,
        "boy_m": 11.2,
        "karbon_kg": 1097.10972,
        "tarih": "2026-09-28"
      }
    },
    {
      "type": "Feature",
      "geometry": {
        "type": "Point",
        "coordinates": [
          32.649203,
          39.98916
        ]
      },
      "properties": {
        "nokta": 7,
        "tur": "KARAÇAM",
        "grup": "İBRELİ",
        "dbh_cm": 107,
        "boy_m": 12,
        "karbon_kg": 1972.8,
        "tarih": "2026-09-28"
      }
    },
    {
      "type": "Feature",
      "geometry": {
        "type": "Point",
        "coordinates": [
          32.6485,
          39.989158
        ]
      },
      "properties": {
        "nokta": 8,
        "tur": "SALKIM SÖĞÜT",
        "grup": "YAPRAKLI",
        "dbh_cm": 112,
        "boy_m": 11.8,
        "karbon_kg": 2345.603526,
        "tarih": "2026-09-28"
      }
    },
    {
      "type": "Feature",
      "geometry": {
        "type": "Point",
        "coordinates": [
          32.648269,
          39.988617
        ]
      },
      "properties": {
        "nokta": 9,
        "tur": "DOĞU ÇINARI",
        "grup": "YAPRAKLI",
        "dbh_cm": 84,
        "boy_m": 6.9,
        "karbon_kg": 820.741824,
        "tarih": "2026-09-28"
      }
    },
    {
      "type": "Feature",
      "geometry": {
        "type": "Point",
        "coordinates": [
          32.648033,
          39.988796
        ]
      },
      "properties": {
        "nokta": 10,
        "tur": "MAVİ LADİN",
        "grup": "İBRELİ",
        "dbh_cm": 88,
        "boy_m": 8,
        "karbon_kg": 850.233384,
        "tarih": "2026-09-28"
      }
    },
    {
      "type": "Feature",
      "geometry": {
        "type": "Point",
        "coordinates": [
          32.646395,
          39.988611
        ]
      },
      "properties": {
        "nokta": 11,
        "tur": "AT KESTANESİ",
        "grup": "YAPRAKLI",
        "dbh_cm": 102,
        "boy_m": 10.5,
        "karbon_kg": 1856.558844,
        "tarih": "2026-09-28"
      }
    },
    {
      "type": "Feature",
      "geometry": {
        "type": "Point",
        "coordinates": [
          32.646159,
          39.98879
        ]
      },
      "properties": {
        "nokta": 12,
        "tur": "KARAAĞAÇ",
        "grup": "YAPRAKLI",
        "dbh_cm": 70,
        "boy_m": 7.1,
        "karbon_kg": 623.716884,
        "tarih": "2026-09-28"
      }
    },
    {
      "type": "Feature",
      "geometry": {
        "type": "Point",
        "coordinates": [
          32.645221,
          39.988968
        ]
      },
      "properties": {
        "nokta": 13,
        "tur": "AT KESTANESİ",
        "grup": "YAPRAKLI",
        "dbh_cm": 88,
        "boy_m": 10.7,
        "karbon_kg": 1379.139048,
        "tarih": "2026-09-28"
      }
    },
    {
      "type": "Feature",
      "geometry": {
        "type": "Point",
        "coordinates": [
          32.644986,
          39.989147
        ]
      },
      "properties": {
        "nokta": 14,
        "tur": "MAVİ LADİN",
        "grup": "İBRELİ",
        "dbh_cm": 142,
        "boy_m": 11.2,
        "karbon_kg": 3318.48153,
        "tarih": "2026-09-28"
      }
    },
    {
      "type": "Feature",
      "geometry": {
        "type": "Point",
        "coordinates": [
          32.644985,
          39.989327
        ]
      },
      "properties": {
        "nokta": 15,
        "tur": "SALKIM SÖĞÜT",
        "grup": "YAPRAKLI",
        "dbh_cm": 140,
        "boy_m": 11.9,
        "karbon_kg": 3600.356886,
        "tarih": "2026-09-28"
      }
    },
    {
      "type": "Feature",
      "geometry": {
        "type": "Point",
        "coordinates": [
          32.645218,
          39.989688
        ]
      },
      "properties": {
        "nokta": 16,
        "tur": "AT KESTANESİ",
        "grup": "YAPRAKLI",
        "dbh_cm": 58,
        "boy_m": 6.3,
        "karbon_kg": 364.46949,
        "tarih": "2026-09-28"
      }
    },
    {
      "type": "Feature",
      "geometry": {
        "type": "Point",
        "coordinates": [
          32.645447,
          39.99059
        ]
      },
      "properties": {
        "nokta": 17,
        "tur": "GÖKNAR",
        "grup": "İBRELİ",
        "dbh_cm": 53,
        "boy_m": 6.8,
        "karbon_kg": 215.67924,
        "tarih": "2026-09-28"
      }
    },
    {
      "type": "Feature",
      "geometry": {
        "type": "Point",
        "coordinates": [
          32.645211,
          39.99113
        ]
      },
      "properties": {
        "nokta": 18,
        "tur": "AT KESTANESİ",
        "grup": "YAPRAKLI",
        "dbh_cm": 80,
        "boy_m": 10.4,
        "karbon_kg": 1113.667632,
        "tarih": "2026-09-28"
      }
    },
    {
      "type": "Feature",
      "geometry": {
        "type": "Point",
        "coordinates": [
          32.645494,
          39.991643
        ]
      },
      "properties": {
        "nokta": 19,
        "tur": "SÜS ERİĞİ",
        "grup": "YAPRAKLI",
        "dbh_cm": 92,
        "boy_m": 8.2,
        "karbon_kg": 1229.087412,
        "tarih": "2026-09-28"
      }
    },
    {
      "type": "Feature",
      "geometry": {
        "type": "Point",
        "coordinates": [
          32.646376,
          39.992215
        ]
      },
      "properties": {
        "nokta": 20,
        "tur": "ATLAS SEDİRİ",
        "grup": "İBRELİ",
        "dbh_cm": 128,
        "boy_m": 11.3,
        "karbon_kg": 2474.957772,
        "tarih": "2026-09-28"
      }
    },
    {
      "type": "Feature",
      "geometry": {
        "type": "Point",
        "coordinates": [
          32.64793,
          39.99271
        ]
      },
      "properties": {
        "nokta": 23,
        "tur": "SALKIM SÖĞÜT",
        "grup": "YAPRAKLI",
        "dbh_cm": 73,
        "boy_m": 8.5,
        "karbon_kg": 766.31,
        "tarih": "2026-09-28"
      }
    },
    {
      "type": "Feature",
      "geometry": {
        "type": "Point",
        "coordinates": [
          32.64731,
          39.99212
        ]
      },
      "properties": {
        "nokta": 25,
        "tur": "DİŞBUDAK",
        "grup": "YAPRAKLI",
        "dbh_cm": 137,
        "boy_m": 7.3,
        "karbon_kg": 2342.65,
        "tarih": "2026-09-28"
      }
    },
    {
      "type": "Feature",
      "geometry": {
        "type": "Point",
        "coordinates": [
          32.64763,
          39.99128
        ]
      },
      "properties": {
        "nokta": 26,
        "tur": "DUT",
        "grup": "YAPRAKLI",
        "dbh_cm": 72,
        "boy_m": 5.8,
        "karbon_kg": 513.69,
        "tarih": "2026-09-28"
      }
    },
    {
      "type": "Feature",
      "geometry": {
        "type": "Point",
        "coordinates": [
          32.64866,
          39.99216
        ]
      },
      "properties": {
        "nokta": 27,
        "tur": "DUT",
        "grup": "YAPRAKLI",
        "dbh_cm": 63,
        "boy_m": 4,
        "karbon_kg": 275.43,
        "tarih": "2026-09-28"
      }
    },
    {
      "type": "Feature",
      "geometry": {
        "type": "Point",
        "coordinates": [
          32.64912,
          39.99167
        ]
      },
      "properties": {
        "nokta": 28,
        "tur": "SALKIM SÖĞÜT",
        "grup": "YAPRAKLI",
        "dbh_cm": 100,
        "boy_m": 6.8,
        "karbon_kg": 1139.23,
        "tarih": "2026-09-28"
      }
    },
    {
      "type": "Feature",
      "geometry": {
        "type": "Point",
        "coordinates": [
          32.64972,
          39.99166
        ]
      },
      "properties": {
        "nokta": 29,
        "tur": "IHLAMUR",
        "grup": "YAPRAKLI",
        "dbh_cm": 40,
        "boy_m": 4.5,
        "karbon_kg": 127.3,
        "tarih": "2026-09-28"
      }
    },
    {
      "type": "Feature",
      "geometry": {
        "type": "Point",
        "coordinates": [
          32.65002,
          39.99152
        ]
      },
      "properties": {
        "nokta": 30,
        "tur": "AKÇAAĞAÇ",
        "grup": "YAPRAKLI",
        "dbh_cm": 58,
        "boy_m": 8.8,
        "karbon_kg": 505.95,
        "tarih": "2026-09-28"
      }
    },
    {
      "type": "Feature",
      "geometry": {
        "type": "Point",
        "coordinates": [
          32.6509,
          39.99151
        ]
      },
      "properties": {
        "nokta": 31,
        "tur": "KATALPA",
        "grup": "YAPRAKLI",
        "dbh_cm": 63,
        "boy_m": 7.8,
        "karbon_kg": 528.54,
        "tarih": "2026-09-28"
      }
    },
    {
      "type": "Feature",
      "geometry": {
        "type": "Point",
        "coordinates": [
          32.65141,
          39.99143
        ]
      },
      "properties": {
        "nokta": 32,
        "tur": "SALKIM SÖĞÜT",
        "grup": "YAPRAKLI",
        "dbh_cm": 200,
        "boy_m": 12.5,
        "karbon_kg": 7985.07,
        "tarih": "2026-09-28"
      }
    },
    {
      "type": "Feature",
      "geometry": {
        "type": "Point",
        "coordinates": [
          32.65192,
          39.99094
        ]
      },
      "properties": {
        "nokta": 33,
        "tur": "AKÇAAĞAÇ",
        "grup": "YAPRAKLI",
        "dbh_cm": 86,
        "boy_m": 8.3,
        "karbon_kg": 1030.97,
        "tarih": "2026-09-28"
      }
    },
    {
      "type": "Feature",
      "geometry": {
        "type": "Point",
        "coordinates": [
          32.65246,
          39.99073
        ]
      },
      "properties": {
        "nokta": 34,
        "tur": "DİŞBUDAK",
        "grup": "YAPRAKLI",
        "dbh_cm": 75,
        "boy_m": 6.5,
        "karbon_kg": 645.28,
        "tarih": "2026-09-28"
      }
    },
    {
      "type": "Feature",
      "geometry": {
        "type": "Point",
        "coordinates": [
          32.65189,
          39.99093
        ]
      },
      "properties": {
        "nokta": 35,
        "tur": "AKÇAAĞAÇ",
        "grup": "YAPRAKLI",
        "dbh_cm": 86,
        "boy_m": 8.3,
        "karbon_kg": 1030.97,
        "tarih": "2026-09-28"
      }
    },
    {
      "type": "Feature",
      "geometry": {
        "type": "Point",
        "coordinates": [
          32.65189,
          39.99131
        ]
      },
      "properties": {
        "nokta": 37,
        "tur": "LADİN",
        "grup": "İBRELİ",
        "dbh_cm": 78,
        "boy_m": 10,
        "karbon_kg": 683.03,
        "tarih": "2026-09-28"
      }
    },
    {
      "type": "Feature",
      "geometry": {
        "type": "Point",
        "coordinates": [
          32.64803,
          39.99299
        ]
      },
      "properties": {
        "nokta": 43,
        "tur": "SIĞLA",
        "grup": "YAPRAKLI",
        "dbh_cm": 57,
        "boy_m": 7.5,
        "karbon_kg": 418.42,
        "tarih": "2026-09-28"
      }
    }
  ]
}