{
  "type": "FeatureCollection",
  "features": [
    {
      "type": "Feature",
      "geometry": {
        "type": "Point",
        "coordinates": [
          32.652009,
          39.99025
        ]
      },
      "properties": {
        "nokta": 1,
        "tur": "SÜS ERİĞİ",
        "grup": "YAPRAKLI",
        "dbh_cm": 35.01,
        "boy_m": 10.2,
        "karbon_kg": 253.1,
        "tarih": "2026-09-28"
      }
    },
    {
      "type": "Feature",
      "geometry": {
        "type": "Point",
        "coordinates": [
          32.651541,
          39.990068
        ]
      },
      "properties": {
        "nokta": 2,
        "tur": "SÜS ERİĞİ",
        "grup": "YAPRAKLI",
        "dbh_cm": 29.28,
        "boy_m": 8.7,
        "karbon_kg": 152.9,
        "tarih": "2026-09-28"
      }
    },
    {
      "type": "Feature",
      "geometry": {
        "type": "Point",
        "coordinates": [
          32.650839,
          39.989886
        ]
      },
      "properties": {
        "nokta": 3,
        "tur": "SALKIM SÖĞÜT",
        "grup": "YAPRAKLI",
        "dbh_cm": 52.84,
        "boy_m": 14,
        "karbon_kg": 494.2,
        "tarih": "2026-09-28"
      }
    },
    {
      "type": "Feature",
      "geometry": {
        "type": "Point",
        "coordinates": [
          32.650372,
          39.989524
        ]
      },
      "properties": {
        "nokta": 4,
        "tur": "HALEP ÇAMI",
        "grup": "İBRELİ",
        "dbh_cm": 18.14,
        "boy_m": 9.3,
        "karbon_kg": 49.1,
        "tarih": "2026-09-28"
      }
    },
    {
      "type": "Feature",
      "geometry": {
        "type": "Point",
        "coordinates": [
          32.650137,
          39.989703
        ]
      },
      "properties": {
        "nokta": 5,
        "tur": "CEVİZ",
        "grup": "YAPRAKLI",
        "dbh_cm": 28.65,
        "boy_m": 8.3,
        "karbon_kg": 124.8,
        "tarih": "2026-09-28"
      }
    },
    {
      "type": "Feature",
      "geometry": {
        "type": "Point",
        "coordinates": [
          32.649904,
          39.989523
        ]
      },
      "properties": {
        "nokta": 6,
        "tur": "KARAÇAM",
        "grup": "İBRELİ",
        "dbh_cm": 26.1,
        "boy_m": 11.2,
        "karbon_kg": 117.4,
        "tarih": "2026-09-28"
      }
    },
    {
      "type": "Feature",
      "geometry": {
        "type": "Point",
        "coordinates": [
          32.649203,
          39.98916
        ]
      },
      "properties": {
        "nokta": 7,
        "tur": "KARAÇAM",
        "grup": "İBRELİ",
        "dbh_cm": 34.06,
        "boy_m": 12,
        "karbon_kg": 211.2,
        "tarih": "2026-09-28"
      }
    },
    {
      "type": "Feature",
      "geometry": {
        "type": "Point",
        "coordinates": [
          32.6485,
          39.989158
        ]
      },
      "properties": {
        "nokta": 8,
        "tur": "SALKIM SÖĞÜT",
        "grup": "YAPRAKLI",
        "dbh_cm": 35.65,
        "boy_m": 11.8,
        "karbon_kg": 194,
        "tarih": "2026-09-28"
      }
    },
    {
      "type": "Feature",
      "geometry": {
        "type": "Point",
        "coordinates": [
          32.648269,
          39.988617
        ]
      },
      "properties": {
        "nokta": 9,
        "tur": "DOĞU ÇINARI",
        "grup": "YAPRAKLI",
        "dbh_cm": 26.74,
        "boy_m": 6.9,
        "karbon_kg": 97.4,
        "tarih": "2026-09-28"
      }
    },
    {
      "type": "Feature",
      "geometry": {
        "type": "Point",
        "coordinates": [
          32.648033,
          39.988796
        ]
      },
      "properties": {
        "nokta": 10,
        "tur": "MAVİ LADİN",
        "grup": "İBRELİ",
        "dbh_cm": 28.01,
        "boy_m": 8,
        "karbon_kg": 93,
        "tarih": "2026-09-28"
      }
    },
    {
      "type": "Feature",
      "geometry": {
        "type": "Point",
        "coordinates": [
          32.646395,
          39.988611
        ]
      },
      "properties": {
        "nokta": 11,
        "tur": "AT KESTANESİ",
        "grup": "YAPRAKLI",
        "dbh_cm": 32.47,
        "boy_m": 10.5,
        "karbon_kg": 175.9,
        "tarih": "2026-09-28"
      }
    },
    {
      "type": "Feature",
      "geometry": {
        "type": "Point",
        "coordinates": [
          32.646159,
          39.98879
        ]
      },
      "properties": {
        "nokta": 12,
        "tur": "KARAAĞAÇ",
        "grup": "YAPRAKLI",
        "dbh_cm": 22.28,
        "boy_m": 7.1,
        "karbon_kg": 66.7,
        "tarih": "2026-09-28"
      }
    },
    {
      "type": "Feature",
      "geometry": {
        "type": "Point",
        "coordinates": [
          32.645221,
          39.988968
        ]
      },
      "properties": {
        "nokta": 13,
        "tur": "AT KESTANESİ",
        "grup": "YAPRAKLI",
        "dbh_cm": 28.01,
        "boy_m": 10.7,
        "karbon_kg": 134.3,
        "tarih": "2026-09-28"
      }
    },
    {
      "type": "Feature",
      "geometry": {
        "type": "Point",
        "coordinates": [
          32.644986,
          39.989147
        ]
      },
      "properties": {
        "nokta": 14,
        "tur": "MAVİ LADİN",
        "grup": "İBRELİ",
        "dbh_cm": 45.2,
        "boy_m": 11.2,
        "karbon_kg": 328.8,
        "tarih": "2026-09-28"
      }
    },
    {
      "type": "Feature",
      "geometry": {
        "type": "Point",
        "coordinates": [
          32.644985,
          39.989327
        ]
      },
      "properties": {
        "nokta": 15,
        "tur": "SALKIM SÖĞÜT",
        "grup": "YAPRAKLI",
        "dbh_cm": 44.56,
        "boy_m": 11.9,
        "karbon_kg": 302.4,
        "tarih": "2026-09-28"
      }
    },
    {
      "type": "Feature",
      "geometry": {
        "type": "Point",
        "coordinates": [
          32.645218,
          39.989688
        ]
      },
      "properties": {
        "nokta": 16,
        "tur": "AT KESTANESİ",
        "grup": "YAPRAKLI",
        "dbh_cm": 18.46,
        "boy_m": 6.3,
        "karbon_kg": 35.5,
        "tarih": "2026-09-28"
      }
    },
    {
      "type": "Feature",
      "geometry": {
        "type": "Point",
        "coordinates": [
          32.645447,
          39.99059
        ]
      },
      "properties": {
        "nokta": 17,
        "tur": "GÖKNAR",
        "grup": "İBRELİ",
        "dbh_cm": 16.87,
        "boy_m": 6.8,
        "karbon_kg": 23.1,
        "tarih": "2026-09-28"
      }
    },
    {
      "type": "Feature",
      "geometry": {
        "type": "Point",
        "coordinates": [
          32.645211,
          39.99113
        ]
      },
      "properties": {
        "nokta": 18,
        "tur": "AT KESTANESİ",
        "grup": "YAPRAKLI",
        "dbh_cm": 25.46,
        "boy_m": 10.4,
        "karbon_kg": 108.4,
        "tarih": "2026-09-28"
      }
    },
    {
      "type": "Feature",
      "geometry": {
        "type": "Point",
        "coordinates": [
          32.645494,
          39.991643
        ]
      },
      "properties": {
        "nokta": 19,
        "tur": "SÜS ERİĞİ",
        "grup": "YAPRAKLI",
        "dbh_cm": 29.28,
        "boy_m": 8.2,
        "karbon_kg": 144.3,
        "tarih": "2026-09-28"
      }
    },
    {
      "type": "Feature",
      "geometry": {
        "type": "Point",
        "coordinates": [
          32.646376,
          39.992215
        ]
      },
      "properties": {
        "nokta": 20,
        "tur": "ATLAS SEDİRİ",
        "grup": "İBRELİ",
        "dbh_cm": 40.74,
        "boy_m": 11.3,
        "karbon_kg": 294.2,
        "tarih": "2026-09-28"
      }
    },
    {
      "type": "Feature",
      "geometry": {
        "type": "Point",
        "coordinates": [
          32.64793,
          39.99271
        ]
      },
      "properties": {
        "nokta": 23,
        "tur": "SALKIM SÖĞÜT",
        "grup": "YAPRAKLI",
        "dbh_cm": 23.24,
        "boy_m": 8.5,
        "karbon_kg": 61.1,
        "tarih": "2026-09-28"
      }
    },
    {
      "type": "Feature",
      "geometry": {
        "type": "Point",
        "coordinates": [
          32.64731,
          39.99212
        ]
      },
      "properties": {
        "nokta": 25,
        "tur": "DİŞBUDAK",
        "grup": "YAPRAKLI",
        "dbh_cm": 43.61,
        "boy_m": 7.3,
        "karbon_kg": 250.8,
        "tarih": "2026-09-28"
      }
    },
    {
      "type": "Feature",
      "geometry": {
        "type": "Point",
        "coordinates": [
          32.64763,
          39.99128
        ]
      },
      "properties": {
        "nokta": 26,
        "tur": "DUT",
        "grup": "YAPRAKLI",
        "dbh_cm": 22.92,
        "boy_m": 5.8,
        "karbon_kg": 57.9,
        "tarih": "2026-09-28"
      }
    },
    {
      "type": "Feature",
      "geometry": {
        "type": "Point",
        "coordinates": [
          32.64866,
          39.99216
        ]
      },
      "properties": {
        "nokta": 27,
        "tur": "DUT",
        "grup": "YAPRAKLI",
        "dbh_cm": 20.05,
        "boy_m": 4,
        "karbon_kg": 31,
        "tarih": "2026-09-28"
      }
    },
    {
      "type": "Feature",
      "geometry": {
        "type": "Point",
        "coordinates": [
          32.64912,
          39.99167
        ]
      },
      "properties": {
        "nokta": 28,
        "tur": "SALKIM SÖĞÜT",
        "grup": "YAPRAKLI",
        "dbh_cm": 31.83,
        "boy_m": 6.8,
        "karbon_kg": 90.8,
        "tarih": "2026-09-28"
      }
    },
    {
      "type": "Feature",
      "geometry": {
        "type": "Point",
        "coordinates": [
          32.64972,
          39.99166
        ]
      },
      "properties": {
        "nokta": 29,
        "tur": "IHLAMUR",
        "grup": "YAPRAKLI",
        "dbh_cm": 12.73,
        "boy_m": 4.5,
        "karbon_kg": 10.6,
        "tarih": "2026-09-28"
      }
    },
    {
      "type": "Feature",
      "geometry": {
        "type": "Point",
        "coordinates": [
          32.65002,
          39.99152
        ]
      },
      "properties": {
        "nokta": 30,
        "tur": "AKÇAAĞAÇ",
        "grup": "YAPRAKLI",
        "dbh_cm": 18.46,
        "boy_m": 8.8,
        "karbon_kg": 54.1,
        "tarih": "2026-09-28"
      }
    },
    {
      "type": "Feature",
      "geometry": {
        "type": "Point",
        "coordinates": [
          32.6509,
          39.99151
        ]
      },
      "properties": {
        "nokta": 31,
        "tur": "KATALPA",
        "grup": "YAPRAKLI",
        "dbh_cm": 20.05,
        "boy_m": 7.8,
        "karbon_kg": 42.1,
        "tarih": "2026-09-28"
      }
    },
    {
      "type": "Feature",
      "geometry": {
        "type": "Point",
        "coordinates": [
          32.65141,
          39.99143
        ]
      },
      "properties": {
        "nokta": 32,
        "tur": "SALKIM SÖĞÜT",
        "grup": "YAPRAKLI",
        "dbh_cm": 63.66,
        "boy_m": 12.5,
        "karbon_kg": 636.5,
        "tarih": "2026-09-28"
      }
    },
    {
      "type": "Feature",
      "geometry": {
        "type": "Point",
        "coordinates": [
          32.65192,
          39.99094
        ]
      },
      "properties": {
        "nokta": 33,
        "tur": "AKÇAAĞAÇ",
        "grup": "YAPRAKLI",
        "dbh_cm": 27.37,
        "boy_m": 8.3,
        "karbon_kg": 110.1,
        "tarih": "2026-09-28"
      }
    },
    {
      "type": "Feature",
      "geometry": {
        "type": "Point",
        "coordinates": [
          32.65246,
          39.99073
        ]
      },
      "properties": {
        "nokta": 34,
        "tur": "DİŞBUDAK",
        "grup": "YAPRAKLI",
        "dbh_cm": 23.87,
        "boy_m": 6.5,
        "karbon_kg": 69.1,
        "tarih": "2026-09-28"
      }
    },
    {
      "type": "Feature",
      "geometry": {
        "type": "Point",
        "coordinates": [
          32.65189,
          39.99093
        ]
      },
      "properties": {
        "nokta": 35,
        "tur": "AKÇAAĞAÇ",
        "grup": "YAPRAKLI",
        "dbh_cm": 27.37,
        "boy_m": 8.3,
        "karbon_kg": 110.1,
        "tarih": "2026-09-28"
      }
    },
    {
      "type": "Feature",
      "geometry": {
        "type": "Point",
        "coordinates": [
          32.65189,
          39.99131
        ]
      },
      "properties": {
        "nokta": 37,
        "tur": "LADİN",
        "grup": "İBRELİ",
        "dbh_cm": 24.83,
        "boy_m": 10,
        "karbon_kg": 73.1,
        "tarih": "2026-09-28"
      }
    },
    {
      "type": "Feature",
      "geometry": {
        "type": "Point",
        "coordinates": [
          32.64803,
          39.99299
        ]
      },
      "properties": {
        "nokta": 43,
        "tur": "SIĞLA",
        "grup": "YAPRAKLI",
        "dbh_cm": 18.14,
        "boy_m": 7.5,
        "karbon_kg": 38.9,
        "tarih": "2026-09-28"
      }
    }
  ]
}